LEDSAT                  
1 49069U 21073D   24257.92225842  .00052145  00000+0  17930-2 0  9993
2 49069  97.4293 328.6843 0016356 331.2029  28.8307 15.29780840169995
XW-3 (CAS-9)            
1 50466U 21131B   24258.14921391  .00003175  00000+0  10229-2 0  9991
2 50466  98.5250 342.8048 0003730 206.6871 153.4126 14.39950019142802
GREENCUBE               
1 53106U 22080B   24254.10475933 -.00000003  00000+0  00000+0 0  9998
2 53106  70.1447 163.0235 0007964  88.1938 271.9634  6.42557210 50721
CAS-5A (FO-118)         
1 54684U 22167C   24258.19917882  .00114309  00000+0  29456-2 0  9996
2 54684  97.6131  45.6512 0009132 198.8826 161.2082 15.38717637 97943
STRATOSAT-TK 1 (RS52S)  
1 57167U 23091B   24258.16695521  .00053954  00000+0  27184-2 0  9996
2 57167  97.6025 311.1891 0014974 169.5788 190.5758 15.16873331 67028
UMKA 1 (RS40S)          
1 57172U 23091G   24258.16346242  .00020999  00000+0  13141-2 0  9996
2 57172  97.6034 309.3590 0016705 173.5630 186.5817 15.09308199 66908
CUBESX-HSE 3 (RS42S)    
1 57178U 23091N   24258.15404979  .00032047  00000+0  18880-2 0  9995
2 57178  97.6072 310.0420 0017214 167.0911 193.0763 15.11404151 66937
MONITOR-4 (RS57S)       
1 57182U 23091S   24258.17388253  .00029728  00000+0  17844-2 0  9999
2 57182  97.6054 309.7947 0017518 168.9134 191.2485 15.10740288 66928
MONITOR-2 (RS39S)       
1 57184U 23091U   24258.19308815  .00017477  00000+0  10996-2 0  9998
2 57184  97.6064 309.8009 0014564 161.3098 198.8669 15.09179616 66921
SVYATOBOR 1 (RS60S)     
1 57187U 23091X   24258.17718736  .00027091  00000+0  16035-2 0  9999
2 57187  97.6061 310.4430 0013889 159.0235 201.1568 15.11317220 66961
VIZARD-METEO (RS38S)    
1 57189U 23091Z   24258.10463904  .00028980  00000+0  16261-2 0  9997
2 57189  97.6054 310.9560 0012838 156.0966 204.0864 15.13237767 66998
NANOZOND 1 (RS49S)      
1 57190U 23091AA  24258.19300780  .00046825  00000+0  23538-2 0  9993
2 57190  97.6026 311.9180 0011183 158.7991 201.3707 15.17038044 67074
POLYTECH-UNIVERSE 3 (R*)
1 57191U 23091AB  24258.13378301  .00015307  00000+0  96259-3 0  9994
2 57191  97.6034 309.3828 0019344 179.2297 180.8965 15.09160582 66900
UTMN 2 (RS27S)          
1 57203U 23091AP  24258.12910454  .00029953  00000+0  17128-2 0  9997
2 57203  97.6055 310.7670 0013324 155.9802 204.2053 15.12545314 66984
ARCCUBE 1 (RS25S)       
1 57205U 23091AR  24258.15430367  .00057311  00000+0  27253-2 0  9991
2 57205  97.5993 312.1410 0011113 159.7945 200.3731 15.18918451 67093
KUZGTU 1 (RS47S)        
1 57217U 23091AV  24258.17274832  .00030758  00000+0  18240-2 0  9991
2 57217  97.6041 309.8740 0017098 168.8560 191.3051 15.11177705 66930
HADES-D (SO-121)        
1 58567U 23174CY  24257.17388058  .00276879  00000+0  51708-2 0  9999
2 58567  97.4417 334.0068 0011164 263.0120  96.9860 15.47680480 47299
OOV-CUBE (TUBSAT-30)    
1 60240U 24128F   24258.07427394  .00009187  00000+0  80722-3 0  9992
2 60240  61.9980 292.8744 0015149 326.7849  33.2287 14.97052783  9912
CUTE-1 (CO-55)          
1 27844U 03031E   24257.59375762  .00001771  00000+0  79851-3 0  9994
2 27844  98.6798 263.4091 0008538 245.3017 114.7273 14.23460994100395
CUBESAT XI-IV (CO-57)   
1 27848U 03031J   24257.00081179  .00001582  00000+0  72321-3 0  9995
2 27848  98.6830 263.0181 0008358 266.1734  93.8489 14.22872722100075
CUBESAT XI-V            
1 28895U 05043F   24257.36932706  .00010280  00000+0  17754-2 0  9996
2 28895  98.2129  33.4202 0016172  80.0753 280.2276 14.68530529  7624
CUTE-1.7+APD II (CO-65) 
1 32785U 08021C   24257.88884969  .00017744  00000+0  14844-2 0  9991
2 32785  97.7625 222.6059 0011789  37.9749 322.2302 14.98477092888823
AAUSAT-II               
1 32788U 08021F   24257.90223125  .00072721  00000+0  29532-2 0  9994
2 32788  97.6000 238.7932 0004884 162.2480 197.8928 15.24280802891906
CANX-2                  
1 32790U 08021H   24256.84445526  .00017810  00000+0  15592-2 0  9999
2 32790  97.7752 220.2348 0013367  52.1110 308.1318 14.96694758888390
SEEDS II (CO-66)        
1 32791U 08021J   24256.89319462  .00038359  00000+0  25687-2 0  9991
2 32791  97.6978 227.7617 0006100  42.3639 317.8059 15.06774272889713
SWISSCUBE               
1 35932U 09051B   24258.16206433  .00007196  00000+0  15199-2 0  9992
2 35932  98.4569 143.2209 0008405  50.5483 309.6458 14.59633162795576
BEESAT-1                
1 35933U 09051C   24257.43076693  .00005983  00000+0  12755-2 0  9992
2 35933  98.4494 143.2662 0006950  64.4915 295.7002 14.59284066795579
ITUPSAT1                
1 35935U 09051E   24257.16643262  .00005274  00000+0  11524-2 0  9992
2 35935  98.4593 142.7330 0009222  69.5719 290.6469 14.58196572795114
TISAT 1                 
1 36799U 10035E   24258.18239787  .00036294  00000+0  25297-2 0  9999
2 36799  98.0771 151.5696 0002118 313.2351  46.8697 15.05310704770630
AEROCUBE 4.5A           
1 38767U 12048K   24256.82323645  .00043190  00000+0  20185-2 0  9992
2 38767  64.6593  31.6908 0111590 348.7945  11.0693 15.14110827273710
AEROCUBE 4.5B           
1 38768U 12048L   24257.86956938  .00099276  00000+0  26108-2 0  9992
2 38768  64.6527 306.0280 0087521 335.9002  23.8044 15.34157003274988
STRAND-1                
1 39090U 13009E   24257.47962343  .00001803  00000+0  63135-3 0  9994
2 39090  98.3821  83.3508 0008773 356.6402   3.4724 14.36269432604934
BRITE-AUSTRIA           
1 39091U 13009F   24257.47375394  .00001199  00000+0  42766-3 0  9994
2 39091  98.3869  82.6205 0010384   2.9014 357.2230 14.35939423604940
NEE-01 PEGASO           
1 39151U 13018B   24257.81049843  .00013743  00000+0  15361-2 0  9994
2 39151  98.0440  15.8924 0015424 110.0758 250.2119 14.86977972615140
ESTCUBE 1               
1 39161U 13021C   24257.42575688  .00010063  00000+0  14250-2 0  9995
2 39161  97.8208 321.2082 0007655 308.5111  51.5412 14.77226287610153
POPACS 1                
1 39268U 13055D   24257.69460466  .00106552  12539-5  16686-2 0  9996
2 39268  80.9776  49.0083 0373594 166.3921 194.7725 15.01655207575240
POPACS 2                
1 39269U 13055E   24257.42682062  .00046395  00000+0  10294-2 0  9997
2 39269  81.0017 143.3439 0536412  53.1276 311.7860 14.60727134569685
POPACS 3                
1 39270U 13055F   24257.19058387  .00022536  00000+0  60992-3 0  9992
2 39270  81.0085 197.2295 0617406 203.7941 153.3559 14.39512542566318
ZACUBE-1 (TSHEPISOSAT)  
1 39417U 13066B   24257.36495576  .00020783  00000+0  20611-2 0  9996
2 39417  97.7413 211.4741 0047254 226.3834 133.3460 14.90955995584718
WNISAT-1                
1 39423U 13066H   24258.11770408  .00005061  00000+0  95886-3 0  9996
2 39423  97.6695  85.2569 0170200  89.9829 272.0873 14.55746285573589
TRITON-1                
1 39427U 13066M   24258.14403117  .00012270  00000+0  16725-2 0  9997
2 39427  97.8355 173.3059 0101664 154.4572 206.1711 14.75244057579512
DELFI-N3XT              
1 39428U 13066N   24257.21170814  .00025185  00000+0  30398-2 0  9991
2 39428  97.8317 173.3188 0098116 161.5547 198.9264 14.80327994579285
GOMX-1                  
1 39430U 13066Q   24258.14252961  .00011035  00000+0  17956-2 0  9995
2 39430  97.7184 127.1241 0137404 330.5208  28.8297 14.65061495576066
CUBEBUG-2 (LO-74)       
1 39440U 13066AA  24257.37466015  .00021961  00000+0  24798-2 0  9998
2 39440  97.8159 199.2275 0067392 347.6795  12.2768 14.84874160582615
NEE-02 KRYSAOR          
1 39441U 13066AB  24257.43551457  .00015312  00000+0  18843-2 0  9998
2 39441  97.8248 194.7974 0073401  10.5860 349.6878 14.81136815582151
FUNCUBE-1 (AO-73)       
1 39444U 13066AE  24256.87442215  .00023562  00000+0  21500-2 0  9999
2 39444  97.7261 214.3690 0045248 206.3163 153.5758 14.94286259583197
UWE-3                   
1 39446U 13066AG  24256.81299608  .00029594  00000+0  31490-2 0  9991
2 39446  97.7865 204.7801 0056233 292.1668  67.3587 14.87710972581720
BRITE-CA1 (TORONTO)     
1 40020U 14033L   24257.93925451  .00007130  00000+0  11358-2 0  9995
2 40020  97.8891  32.0241 0082669 168.0209 192.2990 14.69978360548012
DUCHIFAT-1              
1 40021U 14033M   24258.22105354  .00046960  00000+0  27753-2 0  9991
2 40021  98.0971 246.8824 0014280 147.3648 212.8466 15.11233170557555
NANOSATC-BR1            
1 40024U 14033Q   24258.19032915  .00037335  00000+0  25248-2 0  9995
2 40024  98.0716 234.1985 0004474 195.6573 164.4515 15.06424584557158
QB50P1                  
1 40025U 14033R   24258.16436259  .00028744  00000+0  21843-2 0  9993
2 40025  98.0531 222.0137 0009981 226.6501 133.3891 15.02073544556730
QB50P2                  
1 40032U 14033Y   24257.41335860  .00026693  00000+0  21116-2 0  9998
2 40032  98.0096 212.3248 0008289 183.0792 177.0381 15.00569007556413
PERSEUS-M2              
1 40037U 14033AD  24257.35557200  .00010062  00000+0  10151-2 0  9990
2 40037  97.9265 188.4981 0010990 263.5478  96.4489 14.91252739555465
PERSEUS-M1              
1 40039U 14033AF  24257.32586575  .00010037  00000+0  10171-2 0  9990
2 40039  97.9049 184.2681 0010961 263.0155  96.9816 14.91072552555320
POLYITAN-1              
1 40042U 14033AJ  24258.18018662  .00038152  00000+0  26223-2 0  9999
2 40042  98.0783 226.3300 0012465 177.9400 182.1878 15.05760072556722
TIGRISAT                
1 40043U 14033AK  24256.93548803  .00010568  00000+0  13710-2 0  9994
2 40043  97.7053  55.9686 0054696  18.7149 341.6058 14.79884229550734
AEROCUBE 6A             
1 40045U 14033AM  24256.89910583  .00022245  00000+0  25275-2 0  9993
2 40045  97.6764  67.0437 0048623 354.3498   5.7162 14.85408856551045
AEROCUBE 6B             
1 40046U 14033AN  24257.89206825  .00020098  00000+0  22350-2 0  9997
2 40046  97.6727  66.7872 0047104 345.9738  14.0166 14.86360108551393
